

*******************************************************************************
Ephemeris / WWW_USER Mon Dec 22 06:28:29 2025 Pasadena, USA      / Horizons
*******************************************************************************
Target body name: 1 Ceres (A801 AA)               {source: JPL#48}
Center body name: Sun (10)                        {source: DE441}
Center-site name: BODY CENTER
*******************************************************************************
Start time      : A.D. 1995-Jan-01 00:00:00.0000 TDB
Stop  time      : A.D. 1999-Dec-31 00:00:00.0000 TDB
Step-size       : 1440 minutes
*******************************************************************************
Center geodetic : 0.0, 0.0, 0.0                   {E-lon(deg),Lat(deg),Alt(km)}
Center cylindric: 0.0, 0.0, 0.0                   {E-lon(deg),Dxy(km),Dz(km)}
Center radii    : 695700.0, 695700.0, 695700.0 km {Equator_a, b, pole_c}
Small perturbers: Yes                             {source: SB441-N16}
Output units    : KM-S
Calendar mode   : Gregorian
Output type     : GEOMETRIC cartesian states
Output format   : 2 (position and velocity)
Reference frame : Ecliptic of J2000.0
*******************************************************************************
Initial IAU76/J2000 heliocentric ecliptic osculating elements (au, days, deg.):
  EPOCH=  2458849.5 ! 2020-Jan-01.00 (TDB)         Residual RMS= .24563        
   EC= .07687465013145245  QR= 2.556401146697176   TP= 2458240.1791309435      
   OM= 80.3011901917491    W=  73.80896808746482   IN= 10.59127767086216       
  Equivalent ICRF heliocentric cartesian coordinates (au, au/d):
   X= 1.007608869613381E+00  Y=-2.390064275223502E+00  Z=-1.332124522752402E+00
  VX= 9.201724467227128E-03 VY= 3.370381135398406E-03 VZ=-2.850337057661093E-04
Asteroid physical parameters (km, seconds, rotational period in hours):        
   GM= 62.6284             RAD= 469.7              ROTPER= 9.07417             
   H= 3.35                 G= .120                 B-V= .713                   
                           ALBEDO= .090            STYP= C                     
*******************************************************************************
            JDTDB,            Calendar Date (TDB),                      X,                      Y,                      Z,                     VX,                     VY,                     VZ,
**************************************************************************************************************************************************************************************************
$$SOE
2450902.500000000, A.D. 1998-Mar-30 00:00:00.0000,  4.116098365293514E+08,  1.259890769152117E+08, -7.196293752523915E+07, -5.608507517721419E+00,  1.592960909771012E+01,  1.524078360574369E+00,
2450903.500000000, A.D. 1998-Mar-31 00:00:00.0000,  4.111228098014835E+08,  1.273646404230669E+08, -7.183082829337953E+07, -5.665253453240982E+00,  1.591210553963424E+01,  1.534003595010701E+00,
2450904.500000000, A.D. 1998-Apr-01 00:00:00.0000,  4.106308817570707E+08,  1.287386830096145E+08, -7.169786207117900E+07, -5.721963817882560E+00,  1.589440257722983E+01,  1.543916080907663E+00,
2450905.500000000, A.D. 1998-Apr-02 00:00:00.0000,  4.101340554957326E+08,  1.301111874440773E+08, -7.156403996504994E+07, -5.778638002626521E+00,  1.587650015879902E+01,  1.553815703906351E+00,
2450906.500000000, A.D. 1998-Apr-03 00:00:00.0000,  4.096323341697898E+08,  1.314821364912724E+08, -7.142936309129548E+07, -5.835275396581612E+00,  1.585839823407828E+01,  1.563702349414514E+00,
2450907.500000000, A.D. 1998-Apr-04 00:00:00.0000,  4.091257209844216E+08,  1.328515129117388E+08, -7.129383257612927E+07, -5.891875387068207E+00,  1.584009675429924E+01,  1.573575902618391E+00,
2450908.500000000, A.D. 1998-Apr-05 00:00:00.0000,  4.086142191978172E+08,  1.342192994618679E+08, -7.115744955569394E+07, -5.948437359694987E+00,  1.582159567223120E+01,  1.583436248492409E+00,
2450909.500000000, A.D. 1998-Apr-06 00:00:00.0000,  4.080978321213209E+08,  1.355854788940378E+08, -7.102021517607929E+07, -6.004960698427686E+00,  1.580289494220941E+01,  1.593283271807043E+00,
2450910.500000000, A.D. 1998-Apr-07 00:00:00.0000,  4.075765631195710E+08,  1.369500339567496E+08, -7.088213059333952E+07, -6.061444785649400E+00,  1.578399452015287E+01,  1.603116857134983E+00,
2450911.500000000, A.D. 1998-Apr-08 00:00:00.0000,  4.070504156106342E+08,  1.383129473947645E+08, -7.074319697351007E+07, -6.117889002212602E+00,  1.576489436357447E+01,  1.612936888855945E+00,
2450912.500000000, A.D. 1998-Apr-09 00:00:00.0000,  4.065193930661365E+08,  1.396742019492418E+08, -7.060341549262422E+07, -6.174292727483402E+00,  1.574559443158558E+01,  1.622743251160319E+00,
2450913.500000000, A.D. 1998-Apr-10 00:00:00.0000,  4.059834990113890E+08,  1.410337803578776E+08, -7.046278733672929E+07, -6.230655339378670E+00,  1.572609468489736E+01,  1.632535828051869E+00,
2450914.500000000, A.D. 1998-Apr-11 00:00:00.0000,  4.054427370255125E+08,  1.423916653550418E+08, -7.032131370190260E+07, -6.286976214396872E+00,  1.570639508581963E+01,  1.642314503349668E+00,
2450915.500000000, A.D. 1998-Apr-12 00:00:00.0000,  4.048971107415589E+08,  1.437478396719174E+08, -7.017899579426749E+07, -6.343254727643636E+00,  1.568649559825895E+01,  1.652079160689506E+00,
2450916.500000000, A.D. 1998-Apr-13 00:00:00.0000,  4.043466238466299E+08,  1.451022860366375E+08, -7.003583483000903E+07, -6.399490252852359E+00,  1.566639618771554E+01,  1.661829683524698E+00,
2450917.500000000, A.D. 1998-Apr-14 00:00:00.0000,  4.037912800819957E+08,  1.464549871744234E+08, -6.989183203538975E+07, -6.455682162400935E+00,  1.564609682128146E+01,  1.671565955126677E+00,
2450918.500000000, A.D. 1998-Apr-15 00:00:00.0000,  4.032310832432109E+08,  1.478059258077218E+08, -6.974698864676549E+07, -6.511829827325314E+00,  1.562559746763769E+01,  1.681287858585186E+00,
2450919.500000000, A.D. 1998-Apr-16 00:00:00.0000,  4.026660371802303E+08,  1.491550846563419E+08, -6.960130591060084E+07, -6.567932617330182E+00,  1.560489809705361E+01,  1.690995276808427E+00,
2450920.500000000, A.D. 1998-Apr-17 00:00:00.0000,  4.020961457975233E+08,  1.505024464375927E+08, -6.945478508348508E+07, -6.623989900797261E+00,  1.558399868138548E+01,  1.700688092522881E+00,
2450921.500000000, A.D. 1998-Apr-18 00:00:00.0000,  4.015214130541881E+08,  1.518479938664205E+08, -6.930742743214770E+07, -6.680001044791997E+00,  1.556289919407715E+01,  1.710366188273170E+00,
2450922.500000000, A.D. 1998-Apr-19 00:00:00.0000,  4.009418429640651E+08,  1.531917096555454E+08, -6.915923423347422E+07, -6.735965415068564E+00,  1.554159961016103E+01,  1.720029446421799E+00,
2450923.500000000, A.D. 1998-Apr-20 00:00:00.0000,  4.003574395958500E+08,  1.545335765155992E+08, -6.901020677452198E+07, -6.791882376073942E+00,  1.552009990625978E+01,  1.729677749148853E+00,
2450924.500000000, A.D. 1998-Apr-21 00:00:00.0000,  3.997682070732068E+08,  1.558735771552627E+08, -6.886034635253577E+07, -6.847751290950498E+00,  1.549840006058904E+01,  1.739310978451656E+00,
2450925.500000000, A.D. 1998-Apr-22 00:00:00.0000,  3.991741495748801E+08,  1.572116942814031E+08, -6.870965427496372E+07, -6.903571521538610E+00,  1.547650005296082E+01,  1.748929016144477E+00,
2450926.500000000, A.D. 1998-Apr-23 00:00:00.0000,  3.985752713348076E+08,  1.585479105992131E+08, -6.855813185947321E+07, -6.959342428378014E+00,  1.545439986478737E+01,  1.758531743858176E+00,
2450927.500000000, A.D. 1998-Apr-24 00:00:00.0000,  3.979715766422328E+08,  1.598822088123480E+08, -6.840578043396658E+07, -7.015063370709171E+00,  1.543209947908593E+01,  1.768119043039895E+00,
2450928.500000000, A.D. 1998-Apr-25 00:00:00.0000,  3.973630698418169E+08,  1.612145716230660E+08, -6.825260133659708E+07, -7.070733706474234E+00,  1.540959888048359E+01,  1.777690794952746E+00,
2450929.500000000, A.D. 1998-Apr-26 00:00:00.0000,  3.967497553337507E+08,  1.625449817323663E+08, -6.809859591578484E+07, -7.126352792317650E+00,  1.538689805522274E+01,  1.787246880675514E+00,
2450930.500000000, A.D. 1998-Apr-27 00:00:00.0000,  3.961316375738669E+08,  1.638734218401296E+08, -6.794376553023268E+07, -7.181919983586828E+00,  1.536399699116700E+01,  1.796787181102394E+00,
2450931.500000000, A.D. 1998-Apr-28 00:00:00.0000,  3.955087210737526E+08,  1.651998746452584E+08, -6.778811154894225E+07, -7.237434634332565E+00,  1.534089567780703E+01,  1.806311576942703E+00,
2450932.500000000, A.D. 1998-Apr-29 00:00:00.0000,  3.948810104008607E+08,  1.665243228458175E+08, -6.763163535122983E+07, -7.292896097309583E+00,  1.531759410626666E+01,  1.815819948720642E+00,
2450933.500000000, A.D. 1998-Apr-30 00:00:00.0000,  3.942485101786220E+08,  1.678467491391757E+08, -6.747433832674241E+07, -7.348303723976780E+00,  1.529409226930899E+01,  1.825312176775009E+00,
2450934.500000000, A.D. 1998-May-01 00:00:00.0000,  3.936112250865573E+08,  1.691671362221475E+08, -6.731622187547375E+07, -7.403656864497947E+00,  1.527039016134251E+01,  1.834788141258983E+00,
2450935.500000000, A.D. 1998-May-02 00:00:00.0000,  3.929691598603891E+08,  1.704854667911356E+08, -6.715728740778044E+07, -7.458954867741960E+00,  1.524648777842691E+01,  1.844247722139809E+00,
2450936.500000000, A.D. 1998-May-03 00:00:00.0000,  3.923223192921537E+08,  1.718017235422738E+08, -6.699753634439789E+07, -7.514197081283426E+00,  1.522238511827875E+01,  1.853690799198541E+00,
2450937.500000000, A.D. 1998-May-04 00:00:00.0000,  3.916707082303126E+08,  1.731158891715704E+08, -6.683697011645651E+07, -7.569382851402990E+00,  1.519808218027669E+01,  1.863117252029697E+00,
2450938.500000000, A.D. 1998-May-05 00:00:00.0000,  3.910143315798649E+08,  1.744279463750519E+08, -6.667559016549779E+07, -7.624511523087695E+00,  1.517357896546620E+01,  1.872526960040890E+00,
